ORBCOMM FM103           
1 40091U 14040F   24183.48836240  .00001067  00000+0  27368-3 0  9998
2 40091  47.0046 232.3312 0000844 124.4069 235.6895 14.56726492530007
ORBCOMM FM114           
1 41179U 15081A   24182.62820893  .00001859  00000+0  44836-3 0  9992
2 41179  47.0018 145.6273 0001089 205.2994 154.7838 14.56800020453184
ORBCOMM FM119           
1 41180U 15081B   24182.94393298  .00001330  00000+0  33203-3 0  9993
2 41180  47.0020  53.3491 0001783 245.0564 115.0136 14.56707289454480
ORBCOMM FM105           
1 41181U 15081C   24182.87084067  .00000630  00000+0  22620-3 0  9990
2 41181  47.0029  25.3218 0002007 200.4401 159.6399 14.44456102449943
ORBCOMM FM110           
1 41182U 15081D   24183.29152158  .00001676  00000+0  40792-3 0  9996
2 41182  47.0008 141.9079 0002462 340.0887  19.9901 14.56795348453331
ORBCOMM FM118           
1 41183U 15081E   24182.85782700  .00001654  00000+0  40334-3 0  9998
2 41183  47.0032 144.2732 0002594 336.2060  23.8705 14.56778430453190
ORBCOMM FM112           
1 41184U 15081F   24182.92060044  .00002094  00000+0  50157-3 0  9990
2 41184  46.9996  52.6615 0001826 222.1440 137.9305 14.56686187454474
ORBCOMM FM113           
1 41185U 15081G   24182.89786753  .00002045  00000+0  49062-3 0  9998
2 41185  47.0012  53.0443 0001613 236.2719 123.8012 14.56685077454408
